

*******************************************************************************
Ephemeris / WWW_USER Tue May 30 06:02:18 2023 Pasadena, USA      / Horizons    
*******************************************************************************
Target body name: Moon (301)                      {source: DE441}
Center body name: Sun (10)                        {source: DE441}
Center-site name: BODYCENTRIC
*******************************************************************************
Start time      : A.D. 1980-Jan-01 00:00:00.0000 UT      
Stop  time      : A.D. 2023-Jan-01 00:00:00.0000 UT      
Step-size       : 1440 minutes
*******************************************************************************
Target pole/equ : MOON_ME                         {East-longitude positive}
Target radii    : 1737.4, 1737.4, 1737.4 km       {Equator_a, b, pole_c}       
Center geodetic : 0.0, 0.0, -6.96E5               {E-lon(deg),Lat(deg),Alt(km)}
Center cylindric: 0.0, 0.0, 0.0                   {E-lon(deg),Dxy(km),Dz(km)}
Center pole/equ : IAU_SUN                         {East-longitude positive}
Center radii    : 696000.0, 696000.0, 696000.0 km {Equator_a, b, pole_c}       
Target primary  : Earth
Vis. interferer : None
Rel. light bend : Sun                             {source: DE441}
Rel. lght bnd GM: 1.3271E+11 km^3/s^2                                          
Atmos refraction: NO (AIRLESS)
RA format       : DEG
Time format     : CAL 
Calendar mode   : Gregorian
EOP file        : eop.230528.p230821                                           
EOP coverage    : DATA-BASED 1962-JAN-20 TO 2023-MAY-28. PREDICTS-> 2023-AUG-20
Units conversion: 1 au= 149597870.700 km, c= 299792.458 km/s, 1 day= 86400.0 s 
Table cut-offs 1: Elevation (-90.0deg=NO ),Airmass     n.a.    , Daylight (NO )
Table cut-offs 2: Solar elongation (  0.0,180.0=NO ),Local Hour Angle( 0.0=NO )
Table cut-offs 3: RA/DEC angular rate (     0.0=NO )                           
Table format    : Comma Separated Values (spreadsheet)
*******************************************************************************
 Date__(UT)__HR:MN, , , R.A._(ICRF), DEC_(ICRF),             delta,     deldot,
*******************************************************************************
$$SOE
 1987-Aug-16 00:00, , ,   325.27441,  -13.86377,  1.01293527653332, -1.2236712,
 1987-Aug-17 00:00, , ,   326.20892,  -13.54565,  1.01222681383818, -1.2234158,
 1987-Aug-18 00:00, , ,   327.13555,  -13.22650,  1.01152898056317, -1.1874662,
 1987-Aug-19 00:00, , ,   328.05477,  -12.90638,  1.01086133007421, -1.1195220,
 1987-Aug-20 00:00, , ,   328.96724,  -12.58528,  1.01024125117182, -1.0233674,
 1987-Aug-21 00:00, , ,   329.87371,  -12.26308,  1.00968392313744, -0.9028828,
 1987-Aug-22 00:00, , ,   330.77504,  -11.93960,  1.00920222894880, -0.7621641,
 1987-Aug-23 00:00, , ,   331.67218,  -11.61458,  1.00880658734660, -0.6056732,
 1987-Aug-24 00:00, , ,   332.56616,  -11.28770,  1.00850470261821, -0.4383647,
 1987-Aug-25 00:00, , ,   333.45804,  -10.95859,  1.00830125806932, -0.2657498,
 1987-Aug-26 00:00, , ,   334.34894,  -10.62680,  1.00819759454765, -0.0938830,
 1987-Aug-27 00:00, , ,   335.23997,  -10.29189,  1.00819141847543,  0.0707240,
 1987-Aug-28 00:00, , ,   336.13224,   -9.95335,  1.00827657616338,  0.2212419,
 1987-Aug-29 00:00, , ,   337.02676,   -9.61072,  1.00844291813484,  0.3506930,
 1987-Aug-30 00:00, , ,   337.92447,   -9.26354,  1.00867626787286,  0.4521444,
 1987-Aug-31 00:00, , ,   338.82614,   -8.91141,  1.00895851389729,  0.5189493,
 1987-Sep-01 00:00, , ,   339.73236,   -8.55403,  1.00926786898098,  0.5450974,
 1987-Sep-02 00:00, , ,   340.64348,   -8.19120,  1.00957938330555,  0.5257576,
 1987-Sep-03 00:00, , ,   341.55954,   -7.82288,  1.00986584226167,  0.4580714,
 1987-Sep-04 00:00, , ,   342.48025,   -7.44922,  1.01009918805615,  0.3421525,
 1987-Sep-05 00:00, , ,   343.40495,   -7.07058,  1.01025252745963,  0.1820595,
 1987-Sep-06 00:00, , ,   344.33262,   -6.68755,  1.01030259266957, -0.0136915,
 1987-Sep-07 00:00, , ,   345.26194,   -6.30091,  1.01023224738446, -0.2325491,
 1987-Sep-08 00:00, , ,   346.19144,   -5.91155,  1.01003242221434, -0.4594700,
 1987-Sep-09 00:00, , ,   347.11961,   -5.52045,  1.00970290874316, -0.6792201,
 1987-Sep-10 00:00, , ,   348.04507,   -5.12854,  1.00925179449166, -0.8786319,
 1987-Sep-11 00:00, , ,   348.96667,   -4.73664,  1.00869380070570, -1.0480501,
 1987-Sep-12 00:00, , ,   349.88355,   -4.34545,  1.00804810401512, -1.1816725,
 1987-Sep-13 00:00, , ,   350.79514,   -3.95550,  1.00733623421840, -1.2770143,
 1987-Sep-14 00:00, , ,   351.70115,   -3.56717,  1.00658042372973, -1.3339596,
 1987-Sep-15 00:00, , ,   352.60152,   -3.18070,  1.00580251971421, -1.3538157,
 1987-Sep-16 00:00, , ,   353.49637,   -2.79623,  1.00502338322749, -1.3385950,
 1987-Sep-17 00:00, , ,   354.38598,   -2.41378,  1.00426261785405, -1.2905930,
 1987-Sep-18 00:00, , ,   355.27078,   -2.03328,  1.00353846293892, -1.2122315,
 1987-Sep-19 00:00, , ,   356.15131,   -1.65460,  1.00286771449432, -1.1061083,
 1987-Sep-20 00:00, , ,   357.02826,   -1.27748,  1.00226557526333, -0.9751816,
 1987-Sep-21 00:00, , ,   357.90241,   -0.90163,  1.00174537464319, -0.8230247,
 1987-Sep-22 00:00, , ,   358.77470,   -0.52665,  1.00131813831618, -0.6540805,
 1987-Sep-23 00:00, , ,   359.64614,   -0.15207,  1.00099202727209, -0.4738480,
 1987-Sep-24 00:00, , ,     0.51787,    0.22262,  1.00077170409395, -0.2889389,
 1987-Sep-25 00:00, , ,     1.39109,    0.59798,  1.00065771403640, -0.1069660,
 1987-Sep-26 00:00, , ,     2.26700,    0.97460,  1.00064598077869,  0.0637394,
 1987-Sep-27 00:00, , ,     3.14680,    1.35301,  1.00072750698105,  0.2145456,
 1987-Sep-28 00:00, , ,     4.03159,    1.73371,  1.00088834253482,  0.3370203,
 1987-Sep-29 00:00, , ,     4.92232,    2.11710,  1.00110985277534,  0.4234641,
 1987-Sep-30 00:00, , ,     5.81975,    2.50345,  1.00136930107010,  0.4674663,
 1987-Oct-01 00:00, , ,     6.72435,    2.89286,  1.00164076182581,  0.4644974,
 1987-Oct-02 00:00, , ,     7.63632,    3.28524,  1.00189638983333,  0.4125484,
 1987-Oct-03 00:00, , ,     8.55548,    3.68031,  1.00210806143787,  0.3127615,
 1987-Oct-04 00:00, , ,     9.48131,    4.07755,  1.00224933998427,  0.1698850,
 1987-Oct-05 00:00, , ,    10.41295,    4.47630,  1.00229759258823, -0.0077031,
 1987-Oct-06 00:00, , ,    11.34928,    4.87570,  1.00223593802313, -0.2086291,
 1987-Oct-07 00:00, , ,    12.28900,    5.27485,  1.00205462737935, -0.4198312,
 1987-Oct-08 00:00, , ,    13.23075,    5.67281,  1.00175153793465, -0.6282508,
 1987-Oct-09 00:00, , ,    14.17323,    6.06871,  1.00133169834388, -0.8224085,
 1987-Oct-10 00:00, , ,    15.11528,    6.46177,  1.00080604817179, -0.9934244,
 1987-Oct-11 00:00, , ,    16.05596,    6.85136,  1.00018981845350, -1.1353086,
 1987-Oct-12 00:00, , ,    16.99455,    7.23699,  0.99950092977871, -1.2446488,
 1987-Oct-13 00:00, , ,    17.93052,    7.61828,  0.99875867988298, -1.3199703,
 1987-Oct-14 00:00, , ,    18.86355,    7.99502,  0.99798282771605, -1.3610415,
 1987-Oct-15 00:00, , ,    19.79352,    8.36705,  0.99719304907994, -1.3683027,
 1987-Oct-16 00:00, , ,    20.72041,    8.73434,  0.99640866493130, -1.3424999,
 1987-Oct-17 00:00, , ,    21.64441,    9.09695,  0.99564851713044, -1.2845398,
 1987-Oct-18 00:00, , ,    22.56580,    9.45499,  0.99493086740119, -1.1955506,
 1987-Oct-19 00:00, , ,    23.48506,    9.80868,  0.99427320866297, -1.0771183,
 1987-Oct-20 00:00, , ,    24.40282,   10.15831,  0.99369189902144, -0.9316557,
 1987-Oct-21 00:00, , ,    25.31989,   10.50426,  0.99320156116454, -0.7628312,
 1987-Oct-22 00:00, , ,    26.23730,   10.84698,  0.99281424025026, -0.5759557,
 1987-Oct-23 00:00, , ,    27.15623,   11.18697,  0.99253838327880, -0.3781909,
 1987-Oct-24 00:00, , ,    28.07802,   11.52480,  0.99237778115043, -0.1784519,
 1987-Oct-25 00:00, , ,    29.00410,   11.86100,  0.99233067433989,  0.0130654,
 1987-Oct-26 00:00, , ,    29.93589,   12.19608,  0.99238923207571,  0.1856877,
 1987-Oct-27 00:00, , ,    30.87476,   12.53044,  0.99253955691765,  0.3292476,
 1987-Oct-28 00:00, , ,    31.82188,   12.86436,  0.99276225944954,  0.4350418,
 1987-Oct-29 00:00, , ,    32.77816,   13.19797,  0.99303353763119,  0.4966001,
 1987-Oct-30 00:00, , ,    33.74420,   13.53119,  0.99332662695680,  0.5101976,
 1987-Oct-31 00:00, , ,    34.72024,   13.86377,  0.99361347426392,  0.4751236,
 1987-Nov-01 00:00, , ,    35.70613,   14.19531,  0.99386650688338,  0.3937477,
 1987-Nov-02 00:00, , ,    36.70137,   14.52524,  0.99406038272634,  0.2713835,
 1987-Nov-03 00:00, , ,    37.70511,   14.85287,  0.99417359434533,  0.1159101,
 1987-Nov-04 00:00, , ,    38.71627,   15.17746,  0.99418977168855, -0.0628963,
 1987-Nov-05 00:00, , ,    39.73355,   15.49823,  0.99409852062075, -0.2542882,
 1987-Nov-06 00:00, , ,    40.75558,   15.81445,  0.99389568227113, -0.4475942,
 1987-Nov-07 00:00, , ,    41.78100,   16.12542,  0.99358300456580, -0.6331696,
 1987-Nov-08 00:00, , ,    42.80851,   16.43055,  0.99316734326755, -0.8030477,
 1987-Nov-09 00:00, , ,    43.83697,   16.72937,  0.99265959971349, -0.9511951,
 1987-Nov-10 00:00, , ,    44.86537,   17.02149,  0.99207362131613, -1.0734001,
 1987-Nov-11 00:00, , ,    45.89291,   17.30666,  0.99142524361064, -1.1669183,
 1987-Nov-12 00:00, , ,    46.91893,   17.58469,  0.99073157168572, -1.2300220,
 1987-Nov-13 00:00, , ,    47.94293,   17.85549,  0.99001051857836, -1.2615784,
 1987-Nov-14 00:00, , ,    48.96460,   18.11906,  0.98928055767903, -1.2607410,
 1987-Nov-15 00:00, , ,    49.98375,   18.37544,  0.98856060764520, -1.2268060,
 1987-Nov-16 00:00, , ,    51.00039,   18.62476,  0.98786994508988, -1.1592638,
 1987-Nov-17 00:00, , ,    52.01469,   18.86719,  0.98722802583926, -1.0580661,
 1987-Nov-18 00:00, , ,    53.02709,   19.10300,  0.98665408990817, -0.9241044,
 1987-Nov-19 00:00, , ,    54.03826,   19.33249,  0.98616643849779, -0.7598533,
